[{"OBJECT_NAME":"OBJECT C","OBJECT_ID":"2024-085C","EPOCH":"2026-03-09T22:49:58.289376","MEAN_MOTION":15.31893958,"ECCENTRICITY":0.00283931,"INCLINATION":97.3357,"RA_OF_ASC_NODE":145.6975,"ARG_OF_PERICENTER":37.3887,"MEAN_ANOMALY":322.9323,"EPHEMERIS_TYPE":0,"CLASSIFICATION_TYPE":"U","NORAD_CAT_ID":59679,"ELEMENT_SET_NO":999,"REV_AT_EPOCH":10244,"BSTAR":0.00039740634,"MEAN_MOTION_DOT":0.0001232,"MEAN_MOTION_DDOT":0},{"OBJECT_NAME":"STARLINK-35677","OBJECT_ID":"2025-244Q","EPOCH":"2026-03-09T22:55:59.653056","MEAN_MOTION":15.30198726,"ECCENTRICITY":0.00016907,"INCLINATION":53.1596,"RA_OF_ASC_NODE":228.4321,"ARG_OF_PERICENTER":54.0385,"MEAN_ANOMALY":306.0772,"EPHEMERIS_TYPE":0,"CLASSIFICATION_TYPE":"U","NORAD_CAT_ID":66220,"ELEMENT_SET_NO":999,"REV_AT_EPOCH":2170,"BSTAR":0.0011877651,"MEAN_MOTION_DOT":0.00034984,"MEAN_MOTION_DDOT":0}]
